{
  "norad_id": 53976,
  "name": "STARLINK-5134",
  "history": [
    {
      "epoch": "2026-03-28T09:14:01.828032Z",
      "apogee_km": 540.6155187828263,
      "perigee_km": 538.8722128046456,
      "latitude_deg": 4.1738981511250347e-05,
      "longitude_deg": 156.00075812987936,
      "height_km": 540.4635894625392,
      "semi_major_axis_km": 6917.880865793735,
      "eccentricity": 0.000126,
      "inclination_deg": 53.2163,
      "raan_deg": 120.3143,
      "arg_perigee_deg": 78.3486,
      "mean_anomaly_deg": 281.7648,
      "mean_motion_rev_day": 15.08839844
    },
    {
      "epoch": "2026-03-29T02:43:16.285152Z",
      "apogee_km": 540.6209324647425,
      "perigee_km": 538.8873089498929,
      "latitude_deg": -1.961779191507852e-05,
      "longitude_deg": -110.29870558637207,
      "height_km": 540.4915582532512,
      "semi_major_axis_km": 6917.891120707317,
      "eccentricity": 0.0001253,
      "inclination_deg": 53.2164,
      "raan_deg": 117.0433,
      "arg_perigee_deg": 79.4745,
      "mean_anomaly_deg": 280.6388,
      "mean_motion_rev_day": 15.08836489
    },
    {
      "epoch": "2026-03-29T09:04:48.690048Z",
      "apogee_km": 540.6059006648984,
      "perigee_km": 538.8815497153382,
      "latitude_deg": 1.6390885594726892e-05,
      "longitude_deg": 152.8658460164301,
      "height_km": 540.4922801582815,
      "semi_major_axis_km": 6917.880725190118,
      "eccentricity": 0.00012463,
      "inclination_deg": 53.2162,
      "raan_deg": 115.854,
      "arg_perigee_deg": 80.1693,
      "mean_anomaly_deg": 279.944,
      "mean_motion_rev_day": 15.0883989
    },
    {
      "epoch": "2026-03-30T10:30:58.879872Z",
      "apogee_km": 540.6284075894973,
      "perigee_km": 538.8395845073392,
      "latitude_deg": 4.769213890867098e-05,
      "longitude_deg": 125.52058638351592,
      "height_km": 540.4897187639305,
      "semi_major_axis_km": 6917.8709960484175,
      "eccentricity": 0.00012929,
      "inclination_deg": 53.2159,
      "raan_deg": 111.0958,
      "arg_perigee_deg": 80.9988,
      "mean_anomaly_deg": 279.1151,
      "mean_motion_rev_day": 15.08843073
    },
    {
      "epoch": "2026-03-30T18:27:54.756864Z",
      "apogee_km": 540.6497959206199,
      "perigee_km": 538.8342677475048,
      "latitude_deg": 7.63184669642888e-06,
      "longitude_deg": 4.474588315498176,
      "height_km": 540.5081447829367,
      "semi_major_axis_km": 6917.879031834062,
      "eccentricity": 0.00013122,
      "inclination_deg": 53.2157,
      "raan_deg": 109.6091,
      "arg_perigee_deg": 81.7984,
      "mean_anomaly_deg": 278.3157,
      "mean_motion_rev_day": 15.08840444
    },
    {
      "epoch": "2026-03-31T08:46:22.998144Z",
      "apogee_km": 540.6544681490268,
      "perigee_km": 538.824136436966,
      "latitude_deg": -2.0403534747973882e-05,
      "longitude_deg": 146.59279394279048,
      "height_km": 540.5098978152963,
      "semi_major_axis_km": 6917.876302292996,
      "eccentricity": 0.00013229,
      "inclination_deg": 53.216,
      "raan_deg": 106.9326,
      "arg_perigee_deg": 82.1473,
      "mean_anomaly_deg": 277.9669,
      "mean_motion_rev_day": 15.08841337
    },
    {
      "epoch": "2026-04-01T18:09:29.057184Z",
      "apogee_km": 540.6752831729918,
      "perigee_km": 538.8199065246545,
      "latitude_deg": -2.340596142361604e-05,
      "longitude_deg": -1.7983263705269479,
      "height_km": 540.5156785406244,
      "semi_major_axis_km": 6917.884594848823,
      "eccentricity": 0.0001341,
      "inclination_deg": 53.2162,
      "raan_deg": 100.6878,
      "arg_perigee_deg": 82.0976,
      "mean_anomaly_deg": 278.0168,
      "mean_motion_rev_day": 15.08838624
    },
    {
      "epoch": "2026-04-02T06:52:33.968064Z",
      "apogee_km": 540.6447440600759,
      "perigee_km": 538.8346124484442,
      "latitude_deg": -4.7185969210848375e-05,
      "longitude_deg": 164.52998348273547,
      "height_km": 540.5110380996097,
      "semi_major_axis_km": 6917.87667825426,
      "eccentricity": 0.00013083,
      "inclination_deg": 53.2164,
      "raan_deg": 98.3089,
      "arg_perigee_deg": 82.1037,
      "mean_anomaly_deg": 278.0103,
      "mean_motion_rev_day": 15.08841214
    },
    {
      "epoch": "2026-04-03T06:43:20.669376Z",
      "apogee_km": 540.6416350034933,
      "perigee_km": 538.8139351272785,
      "latitude_deg": 5.067549021156985e-05,
      "longitude_deg": 161.39533493980144,
      "height_km": 540.5137526994971,
      "semi_major_axis_km": 6917.864785065385,
      "eccentricity": 0.0001321,
      "inclination_deg": 53.2162,
      "raan_deg": 93.8481,
      "arg_perigee_deg": 83.1071,
      "mean_anomaly_deg": 277.0072,
      "mean_motion_rev_day": 15.08845105
    },
    {
      "epoch": "2026-04-04T06:34:08.404032Z",
      "apogee_km": 540.7383511695325,
      "perigee_km": 538.7547172449349,
      "latitude_deg": -3.3820797344203444e-05,
      "longitude_deg": 158.25633262475537,
      "height_km": 540.5350235782032,
      "semi_major_axis_km": 6917.883534207233,
      "eccentricity": 0.00014337,
      "inclination_deg": 53.2163,
      "raan_deg": 89.3874,
      "arg_perigee_deg": 83.8058,
      "mean_anomaly_deg": 276.3097,
      "mean_motion_rev_day": 15.08838971
    },
    {
      "epoch": "2026-04-05T06:24:53.634816Z",
      "apogee_km": 540.5167834789008,
      "perigee_km": 538.8689564038796,
      "latitude_deg": 1.1829884377718047e-05,
      "longitude_deg": 155.12668759016935,
      "height_km": 540.4587277866372,
      "semi_major_axis_km": 6917.82986994139,
      "eccentricity": 0.0001191,
      "inclination_deg": 53.2156,
      "raan_deg": 84.9255,
      "arg_perigee_deg": 80.9276,
      "mean_anomaly_deg": 279.1851,
      "mean_motion_rev_day": 15.08856528
    },
    {
      "epoch": "2026-04-06T06:15:42.948000Z",
      "apogee_km": 540.7544757442829,
      "perigee_km": 538.8098486677864,
      "latitude_deg": -2.9611109242235536e-05,
      "longitude_deg": 151.9841204361626,
      "height_km": 540.4984002807975,
      "semi_major_axis_km": 6917.919162206034,
      "eccentricity": 0.00014055,
      "inclination_deg": 53.217,
      "raan_deg": 80.4678,
      "arg_perigee_deg": 79.3676,
      "mean_anomaly_deg": 280.7474,
      "mean_motion_rev_day": 15.08827315
    },
    {
      "epoch": "2026-04-07T07:41:52.693728Z",
      "apogee_km": 540.7484427945901,
      "perigee_km": 538.7293915294076,
      "latitude_deg": 2.1739331014998418e-05,
      "longitude_deg": 124.6402275789725,
      "height_km": 540.7229008246678,
      "semi_major_axis_km": 6917.875917161999,
      "eccentricity": 0.00014593,
      "inclination_deg": 53.217,
      "raan_deg": 75.7091,
      "arg_perigee_deg": 95.0267,
      "mean_anomaly_deg": 265.0892,
      "mean_motion_rev_day": 15.08841463
    },
    {
      "epoch": "2026-04-07T15:38:48.440256Z",
      "apogee_km": 540.7295843341744,
      "perigee_km": 538.7579883100725,
      "latitude_deg": -3.351912152450467e-05,
      "longitude_deg": 3.5948619462225904,
      "height_km": 540.6344269709241,
      "semi_major_axis_km": 6917.880786322124,
      "eccentricity": 0.0001425,
      "inclination_deg": 53.217,
      "raan_deg": 74.2225,
      "arg_perigee_deg": 89.713,
      "mean_anomaly_deg": 270.4025,
      "mean_motion_rev_day": 15.0883987
    },
    {
      "epoch": "2026-04-08T15:29:36.026304Z",
      "apogee_km": 540.7548562907568,
      "perigee_km": 538.7701109289101,
      "latitude_deg": -3.539240759340208e-05,
      "longitude_deg": 0.45633926130854496,
      "height_km": 540.6315182826731,
      "semi_major_axis_km": 6917.899483609834,
      "eccentricity": 0.00014345,
      "inclination_deg": 53.217,
      "raan_deg": 69.7616,
      "arg_perigee_deg": 88.4681,
      "mean_anomaly_deg": 271.6475,
      "mean_motion_rev_day": 15.08833753
    }
  ]
}